{
  "type": "FeatureCollection",
  "features": [
    {
      "type": "Feature",
      "properties": {
        "norad_id": 66491,
        "name": "STARLINK-35663",
        "group": "last-30-days",
        "lat": 32.18756888365739,
        "lon": -37.302274165204594,
        "alt_km": 340.672455849598,
        "timestamp": "2025-12-02T13:52:16.065212+00:00",
        "meta_object_name": "STARLINK-35663",
        "meta_object_id": "2025-263G",
        "meta_epoch": "2025-12-02T06:00:02.999808",
        "meta_mean_motion": 15.75128288,
        "meta_eccentricity": 0.00020095,
        "meta_inclination": 42.9991,
        "meta_ra_of_asc_node": 187.1805,
        "meta_arg_of_pericenter": 272.7874,
        "meta_mean_anomaly": 154.0867,
        "meta_ephemeris_type": 0,
        "meta_classification_type": "U",
        "meta_norad_cat_id": 66491,
        "meta_element_set_no": 999,
        "meta_rev_at_epoch": 395,
        "meta_bstar": -0.0014332969,
        "meta_mean_motion_dot": -0.0021597,
        "meta_mean_motion_ddot": 0,
        "tle_line1": "1 66491U 25263G   25336.25003472 -.00215970  00000+0 -14333-2 0  9997",
        "tle_line2": "2 66491  42.9991 187.1805 0002009 272.7874 154.0867 15.75128288  3955"
      },
      "geometry": {
        "type": "Point",
        "coordinates": [
          -37.302274165204594,
          32.18756888365739
        ]
      }
    },
    {
      "type": "Feature",
      "properties": {
        "norad_id": 66492,
        "name": "STARLINK-35673",
        "group": "last-30-days",
        "lat": 31.206546237769878,
        "lon": -35.36515379354896,
        "alt_km": 340.7453281285316,
        "timestamp": "2025-12-02T13:52:16.065222+00:00",
        "meta_object_name": "STARLINK-35673",
        "meta_object_id": "2025-263H",
        "meta_epoch": "2025-12-02T06:00:02.999808",
        "meta_mean_motion": 15.75142667,
        "meta_eccentricity": 0.00017721,
        "meta_inclination": 42.9988,
        "meta_ra_of_asc_node": 187.1755,
        "meta_arg_of_pericenter": 273.4346,
        "meta_mean_anomaly": 155.3618,
        "meta_ephemeris_type": 0,
        "meta_classification_type": "U",
        "meta_norad_cat_id": 66492,
        "meta_element_set_no": 999,
        "meta_rev_at_epoch": 395,
        "meta_bstar": -0.001785186,
        "meta_mean_motion_dot": -0.00267419,
        "meta_mean_motion_ddot": 0,
        "tle_line1": "1 66492U 25263H   25336.25003472 -.00267419  00000+0 -17852-2 0  9992",
        "tle_line2": "2 66492  42.9988 187.1755 0001772 273.4346 155.3618 15.75142667  3959"
      },
      "geometry": {
        "type": "Point",
        "coordinates": [
          -35.36515379354896,
          31.206546237769878
        ]
      }
    },
    {
      "type": "Feature",
      "properties": {
        "norad_id": 66493,
        "name": "STARLINK-35597",
        "group": "last-30-days",
        "lat": 30.194674598241313,
        "lon": -33.46327503910642,
        "alt_km": 341.0707151378356,
        "timestamp": "2025-12-02T13:52:16.065234+00:00",
        "meta_object_name": "STARLINK-35597",
        "meta_object_id": "2025-263J",
        "meta_epoch": "2025-12-02T06:00:02.999808",
        "meta_mean_motion": 15.7507508,
        "meta_eccentricity": 0.00018772,
        "meta_inclination": 42.9991,
        "meta_ra_of_asc_node": 187.1704,
        "meta_arg_of_pericenter": 283.1201,
        "meta_mean_anomaly": 147.6424,
        "meta_ephemeris_type": 0,
        "meta_classification_type": "U",
        "meta_norad_cat_id": 66493,
        "meta_element_set_no": 999,
        "meta_rev_at_epoch": 395,
        "meta_bstar": -0.0011760166,
        "meta_mean_motion_dot": -0.00177666,
        "meta_mean_motion_ddot": 0,
        "tle_line1": "1 66493U 25263J   25336.25003472 -.00177666  00000+0 -11760-2 0  9999",
        "tle_line2": "2 66493  42.9991 187.1704 0001877 283.1201 147.6424 15.75075080  3955"
      },
      "geometry": {
        "type": "Point",
        "coordinates": [
          -33.46327503910642,
          30.194674598241313
        ]
      }
    },
    {
      "type": "Feature",
      "properties": {
        "norad_id": 66494,
        "name": "STARLINK-35689",
        "group": "last-30-days",
        "lat": 33.13670633204237,
        "lon": -39.27822390831812,
        "alt_km": 340.4120878688673,
        "timestamp": "2025-12-02T13:52:16.065244+00:00",
        "meta_object_name": "STARLINK-35689",
        "meta_object_id": "2025-263K",
        "meta_epoch": "2025-12-02T06:00:02.999808",
        "meta_mean_motion": 15.75137098,
        "meta_eccentricity": 0.00017784,
        "meta_inclination": 42.9991,
        "meta_ra_of_asc_node": 187.1855,
        "meta_arg_of_pericenter": 268.1459,
        "meta_mean_anomaly": 156.8173,
        "meta_ephemeris_type": 0,
        "meta_classification_type": "U",
        "meta_norad_cat_id": 66494,
        "meta_element_set_no": 999,
        "meta_rev_at_epoch": 395,
        "meta_bstar": -0.0017135418,
        "meta_mean_motion_dot": -0.00256957,
        "meta_mean_motion_ddot": 0,
        "tle_line1": "1 66494U 25263K   25336.25003472 -.00256957  00000+0 -17135-2 0  9993",
        "tle_line2": "2 66494  42.9991 187.1855 0001778 268.1459 156.8173 15.75137098  3952"
      },
      "geometry": {
        "type": "Point",
        "coordinates": [
          -39.27822390831812,
          33.13670633204237
        ]
      }
    },
    {
      "type": "Feature",
      "properties": {
        "norad_id": 66495,
        "name": "STARLINK-35832",
        "group": "last-30-days",
        "lat": 29.167487323862066,
        "lon": -31.62193141510332,
        "alt_km": 340.72308832288854,
        "timestamp": "2025-12-02T13:52:16.065254+00:00",
        "meta_object_name": "STARLINK-35832",
        "meta_object_id": "2025-263L",
        "meta_epoch": "2025-12-02T06:00:02.999808",
        "meta_mean_motion": 15.75144308,
        "meta_eccentricity": 0.00015707,
        "meta_inclination": 42.9988,
        "meta_ra_of_asc_node": 187.1658,
        "meta_arg_of_pericenter": 258.8694,
        "meta_mean_anomaly": 173.7563,
        "meta_ephemeris_type": 0,
        "meta_classification_type": "U",
        "meta_norad_cat_id": 66495,
        "meta_element_set_no": 999,
        "meta_rev_at_epoch": 395,
        "meta_bstar": -0.0018075747,
        "meta_mean_motion_dot": -0.00270672,
        "meta_mean_motion_ddot": 0,
        "tle_line1": "1 66495U 25263L   25336.25003472 -.00270672  00000+0 -18076-2 0  9999",
        "tle_line2": "2 66495  42.9988 187.1658 0001570 258.8694 173.7563 15.75144308  3950"
      },
      "geometry": {
        "type": "Point",
        "coordinates": [
          -31.62193141510332,
          29.167487323862066
        ]
      }
    },
    {
      "type": "Feature",
      "properties": {
        "norad_id": 66496,
        "name": "STARLINK-35909",
        "group": "last-30-days",
        "lat": 28.103700338331443,
        "lon": -29.797331423071427,
        "alt_km": 341.0985774627479,
        "timestamp": "2025-12-02T13:52:16.065264+00:00",
        "meta_object_name": "STARLINK-35909",
        "meta_object_id": "2025-263M",
        "meta_epoch": "2025-12-02T06:00:02.999808",
        "meta_mean_motion": 15.75148711,
        "meta_eccentricity": 0.0001595,
        "meta_inclination": 42.9987,
        "meta_ra_of_asc_node": 187.1612,
        "meta_arg_of_pericenter": 275.0407,
        "meta_mean_anomaly": 159.5016,
        "meta_ephemeris_type": 0,
        "meta_classification_type": "U",
        "meta_norad_cat_id": 66496,
        "meta_element_set_no": 999,
        "meta_rev_at_epoch": 395,
        "meta_bstar": -0.001824946,
        "meta_mean_motion_dot": -0.0027324,
        "meta_mean_motion_ddot": 0,
        "tle_line1": "1 66496U 25263M   25336.25003472 -.00273240  00000+0 -18249-2 0  9996",
        "tle_line2": "2 66496  42.9987 187.1612 0001595 275.0407 159.5016 15.75148711  3957"
      },
      "geometry": {
        "type": "Point",
        "coordinates": [
          -29.797331423071427,
          28.103700338331443
        ]
      }
    },
    {
      "type": "Feature",
      "properties": {
        "norad_id": 66497,
        "name": "STARLINK-35899",
        "group": "last-30-days",
        "lat": 27.024138667710677,
        "lon": -28.022861996528572,
        "alt_km": 341.22796127543734,
        "timestamp": "2025-12-02T13:52:16.065279+00:00",
        "meta_object_name": "STARLINK-35899",
        "meta_object_id": "2025-263N",
        "meta_epoch": "2025-12-02T06:00:02.999808",
        "meta_mean_motion": 15.75121808,
        "meta_eccentricity": 0.00016388,
        "meta_inclination": 42.9988,
        "meta_ra_of_asc_node": 187.1554,
        "meta_arg_of_pericenter": 272.0263,
        "meta_mean_anomaly": 164.4429,
        "meta_ephemeris_type": 0,
        "meta_classification_type": "U",
        "meta_norad_cat_id": 66497,
        "meta_element_set_no": 999,
        "meta_rev_at_epoch": 395,
        "meta_bstar": -0.0015491319,
        "meta_mean_motion_dot": -0.00232842,
        "meta_mean_motion_ddot": 0,
        "tle_line1": "1 66497U 25263N   25336.25003472 -.00232842  00000+0 -15491-2 0  9996",
        "tle_line2": "2 66497  42.9988 187.1554 0001638 272.0263 164.4429 15.75121808  3950"
      },
      "geometry": {
        "type": "Point",
        "coordinates": [
          -28.022861996528572,
          27.024138667710677
        ]
      }
    }
  ]
}